  { name: "SENTINEL-5", line1: "1 10811U 26001A   26178.68228373  .00000000  00000-0  00000-0 0 09117", line2: "2 10811  66.4139 221.0524 0015000 127.2950 172.1515 14.42614498 10006", group: "science" },
  { name: "LANDSAT-5", line1: "1 10812U 26001A   26178.68228373  .00000000  00000-0  00000-0 0 09129", line2: "2 10812  71.5406 185.1871 0015000 164.4994 228.8495 14.95348336 10006", group: "science" },
  { name: "TERRA-5", line1: "1 10813U 26001A   26178.68228373  .00000000  00000-0  00000-0 0 09131", line2: "2 10813  91.0338 251.5990 0015000 191.8062 146.2539 14.81194019 10002", group: "science" },
  { name: "AQUA-5", line1: "1 10814U 26001A   26178.68228373  .00000000  00000-0  00000-0 0 09143", line2: "2 10814  97.7704 202.1225 0015000 337.6113 289.2510 14.94633143 10000", group: "science" },
  { name: "SWOT-5", line1: "1 10815U 26001A   26178.68228373  .00000000  00000-0  00000-0 0 09155", line2: "2 10815  68.7841 298.3059 0015000 275.8534  47.7315 14.64462013 10006", group: "science" },
  { name: "GRACE-FO-5", line1: "1 10816U 26001A   26178.68228373  .00000000  00000-0  00000-0 0 09167", line2: "2 10816  95.0097 257.9523 0015000  76.9828 207.5729 14.77825725 10008", group: "science" },
  { name: "ICESAT-5", line1: "1 10817U 26001A   26178.68228373  .00000000  00000-0  00000-0 0 09179", line2: "2 10817  92.8108  37.5023 0015000 182.0840 307.4498 14.82777176 10002", group: "science" },
  { name: "CALIPSO-5", line1: "1 10818U 26001A   26178.68228373  .00000000  00000-0  00000-0 0 09181", line2: "2 10818  80.2982 239.8656 0015000 184.1760  52.4244 14.53325752 10000", group: "science" },
  { name: "JASON-5", line1: "1 10819U 26001A   26178.68228373  .00000000  00000-0  00000-0 0 09193", line2: "2 10819  53.2974  48.7329 0015000 113.9221 135.5048 14.63648847 10007", group: "science" },
  { name: "SMAP-5", line1: "1 10820U 26001A   26178.68228373  .00000000  00000-0  00000-0 0 09207", line2: "2 10820  76.2145  90.0615 0015000  86.8891  19.4014 14.41604995 10008", group: "science" },
  { name: "SENTINEL-6", line1: "1 10821U 26001A   26178.68228373  .00000000  00000-0  00000-0 0 09219", line2: "2 10821  56.3328 287.4710 0015000   5.3145 329.6817 15.15483606 10000", group: "science" },
  { name: "LANDSAT-6", line1: "1 10822U 26001A   26178.68228373  .00000000  00000-0  00000-0 0 09221", line2: "2 10822  76.7685 158.6930 0015000 272.5952 192.3620 14.89435691 10008", group: "science" },
  { name: "TERRA-6", line1: "1 10823U 26001A   26178.68228373  .00000000  00000-0  00000-0 0 09233", line2: "2 10823  92.4168  72.4223 0015000 284.3161 264.1005 14.54286330 10002", group: "science" },
  { name: "AQUA-6", line1: "1 10824U 26001A   26178.68228373  .00000000  00000-0  00000-0 0 09245", line2: "2 10824  85.4071 221.1337 0015000 335.8608 136.7023 14.65028947 10009", group: "science" },
  { name: "SWOT-6", line1: "1 10825U 26001A   26178.68228373  .00000000  00000-0  00000-0 0 09257", line2: "2 10825  82.5888 241.3372 0015000 201.2940  60.1975 15.06462059 10000", group: "science" },
  { name: "GRACE-FO-6", line1: "1 10826U 26001A   26178.68228373  .00000000  00000-0  00000-0 0 09269", line2: "2 10826  81.3127 317.4292 0015000 314.3718  31.9532 14.92668049 10005", group: "science" },
  { name: "ICESAT-6", line1: "1 10827U 26001A   26178.68228373  .00000000  00000-0  00000-0 0 09271", line2: "2 10827  96.9520 205.3048 0015000 106.9568  75.8484 15.15313721 10000", group: "science" },
  { name: "CALIPSO-6", line1: "1 10828U 26001A   26178.68228373  .00000000  00000-0  00000-0 0 09283", line2: "2 10828  84.2656 104.6784 0015000  19.1221 156.9210 15.01923049 10003", group: "science" },
  { name: "JASON-6", line1: "1 10829U 26001A   26178.68228373  .00000000  00000-0  00000-0 0 09295", line2: "2 10829  74.7561 158.5788 0015000 242.6156 338.0253 14.67225921 10000", group: "science" },
  { name: "SMAP-6", line1: "1 10830U 26001A   26178.68228373  .00000000  00000-0  00000-0 0 09309", line2: "2 10830  69.7279 106.8137 0015000 139.5730 176.4261 14.50713883 10002", group: "science" },
  { name: "SENTINEL-7", line1: "1 10831U 26001A   26178.68228373  .00000000  00000-0  00000-0 0 09311", line2: "2 10831  73.7872 105.5332 0015000  68.2372 222.3278 14.94960931 10005", group: "science" },
  { name: "LANDSAT-7", line1: "1 10832U 26001A   26178.68228373  .00000000  00000-0  00000-0 0 09323", line2: "2 10832  75.0249 140.3827 0015000 298.9443 301.9208 14.40610438 10008", group: "science" },
  { name: "TERRA-7", line1: "1 10833U 26001A   26178.68228373  .00000000  00000-0  00000-0 0 09335", line2: "2 10833  62.5067 265.1366 0015000 333.3942   6.2270 14.81222830 10004", group: "science" },
  { name: "AQUA-7", line1: "1 10834U 26001A   26178.68228373  .00000000  00000-0  00000-0 0 09347", line2: "2 10834  94.1486   6.8504 0015000 223.2477 277.9216 14.80582384 10004", group: "science" },
  { name: "SWOT-7", line1: "1 10835U 26001A   26178.68228373  .00000000  00000-0  00000-0 0 09359", line2: "2 10835  69.2018  28.0349 0015000 202.1256 184.3277 15.13429397 10002", group: "science" },
  { name: "GRACE-FO-7", line1: "1 10836U 26001A   26178.68228373  .00000000  00000-0  00000-0 0 09361", line2: "2 10836  92.2375 281.5966 0015000  68.4063 189.7845 14.51944289 10008", group: "science" },
  { name: "ICESAT-7", line1: "1 10837U 26001A   26178.68228373  .00000000  00000-0  00000-0 0 09373", line2: "2 10837  71.3300 229.4909 0015000 224.0432  41.5155 15.13263798 10000", group: "science" },
  { name: "CALIPSO-7", line1: "1 10838U 26001A   26178.68228373  .00000000  00000-0  00000-0 0 09385", line2: "2 10838  67.5759  13.8612 0015000   4.3999  64.5602 14.84804907 10001", group: "science" },
  { name: "JASON-7", line1: "1 10839U 26001A   26178.68228373  .00000000  00000-0  00000-0 0 09397", line2: "2 10839  78.3688  34.3856 0015000 150.4707 300.4418 14.66569604 10000", group: "science" },
  { name: "SMAP-7", line1: "1 10840U 26001A   26178.68228373  .00000000  00000-0  00000-0 0 09401", line2: "2 10840  81.9803  51.1792 0015000   4.1194  31.1649 14.83958969 10001", group: "science" },
  { name: "SENTINEL-8", line1: "1 10841U 26001A   26178.68228373  .00000000  00000-0  00000-0 0 09413", line2: "2 10841  95.9718 281.9948 0015000 189.6477 215.1669 14.81226076 10002", group: "science" },
  { name: "LANDSAT-8", line1: "1 10842U 26001A   26178.68228373  .00000000  00000-0  00000-0 0 09425", line2: "2 10842  59.5753 232.6332 0015000  83.6678 169.0399 14.84609836 10003", group: "science" },
  { name: "TERRA-8", line1: "1 10843U 26001A   26178.68228373  .00000000  00000-0  00000-0 0 09437", line2: "2 10843  85.9048 233.3537 0015000  59.4018 346.2779 15.01478248 10000", group: "science" },
  { name: "AQUA-8", line1: "1 10844U 26001A   26178.68228373  .00000000  00000-0  00000-0 0 09449", line2: "2 10844  88.9525 326.3004 0015000  50.4601 102.0335 14.91084342 10007", group: "science" },
  { name: "SWOT-8", line1: "1 10845U 26001A   26178.68228373  .00000000  00000-0  00000-0 0 09451", line2: "2 10845  49.3201 140.1744 0015000 191.5423  76.2282 14.69794235 10009", group: "science" },
  { name: "GRACE-FO-8", line1: "1 10846U 26001A   26178.68228373  .00000000  00000-0  00000-0 0 09463", line2: "2 10846  45.1595 288.4582 0015000 264.4249  46.0293 14.56066275 10001", group: "science" },
  { name: "ICESAT-8", line1: "1 10847U 26001A   26178.68228373  .00000000  00000-0  00000-0 0 09475", line2: "2 10847  98.3951 187.3754 0015000 104.2027 186.2232 14.57026757 10003", group: "science" },
  { name: "CALIPSO-8", line1: "1 10848U 26001A   26178.68228373  .00000000  00000-0  00000-0 0 09487", line2: "2 10848  95.5867 309.1127 0015000 260.3410 181.8324 14.51845134 10002", group: "science" },
  { name: "JASON-8", line1: "1 10849U 26001A   26178.68228373  .00000000  00000-0  00000-0 0 09499", line2: "2 10849  97.6543 208.1721 0015000  33.9793 136.5309 14.85412454 10005", group: "science" },
  { name: "SMAP-8", line1: "1 10850U 26001A   26178.68228373  .00000000  00000-0  00000-0 0 09503", line2: "2 10850  68.9691   7.5755 0015000 250.9835 292.9501 14.89591375 10003", group: "science" },
  { name: "SENTINEL-9", line1: "1 10851U 26001A   26178.68228373  .00000000  00000-0  00000-0 0 09515", line2: "2 10851  50.1658 140.9385 0015000  30.4248 147.7986 14.83601782 10002", group: "science" },
  { name: "LANDSAT-9", line1: "1 10852U 26001A   26178.68228373  .00000000  00000-0  00000-0 0 09527", line2: "2 10852  77.5013  41.8646 0015000 326.1068 115.3200 14.49007272 10001", group: "science" },
  { name: "TERRA-9", line1: "1 10853U 26001A   26178.68228373  .00000000  00000-0  00000-0 0 09539", line2: "2 10853  72.5166  39.8228 0015000  30.2664  52.7150 14.43885192 10001", group: "science" },
  { name: "AQUA-9", line1: "1 10854U 26001A   26178.68228373  .00000000  00000-0  00000-0 0 09541", line2: "2 10854  97.7292 303.6614 0015000 157.7901 317.9705 14.67281595 10006", group: "science" },
  { name: "SWOT-9", line1: "1 10855U 26001A   26178.68228373  .00000000  00000-0  00000-0 0 09553", line2: "2 10855  64.8072 315.8846 0015000 276.7396 255.7258 14.74114941 10000", group: "science" },
  { name: "GRACE-FO-9", line1: "1 10856U 26001A   26178.68228373  .00000000  00000-0  00000-0 0 09565", line2: "2 10856  65.7946  36.2113 0015000 120.5918  14.8637 15.04385825 10008", group: "science" },
  { name: "ICESAT-9", line1: "1 10857U 26001A   26178.68228373  .00000000  00000-0  00000-0 0 09577", line2: "2 10857  64.9561 230.8207 0015000 249.5073  26.8866 14.58046555 10002", group: "science" },
  { name: "CALIPSO-9", line1: "1 10858U 26001A   26178.68228373  .00000000  00000-0  00000-0 0 09589", line2: "2 10858  72.1327 210.7501 0015000 334.4206 187.8211 14.54738223 10008", group: "science" },
  { name: "JASON-9", line1: "1 10859U 26001A   26178.68228373  .00000000  00000-0  00000-0 0 09591", line2: "2 10859  53.2098  85.3127 0015000 260.4257 208.9913 15.16104987 10005", group: "science" },
